ORBCOMM FM33            
1 25983U 99065D   25298.44054634  .00001791  00000+0  60399-3 0  9999
2 25983  45.0274  99.5552 0007481   0.4217 359.6638 14.40332742354844
ORBCOMM FM36            
1 25984U 99065E   25298.43498692  .00001653  00000+0  58226-3 0  9998
2 25984  45.0375 193.4970 0002615 263.4441  96.6110 14.38503731353172
ORBCOMM FM35            
1 25985U 99065F   25298.44003271  .00001534  00000+0  55524-3 0  9991
2 25985  45.0379 199.5563 0004998 333.5413  26.5180 14.37435530353524
ORBCOMM FM34            
1 25986U 99065G   25298.12742979  .00001367  00000+0  50040-3 0  9994
2 25986  45.0382 201.4925 0004523 293.2198  66.8174 14.37410389353592
ORBCOMM FM38            
1 33060U 08031A   25298.30718870  .00003392  00000+0  45029-3 0  9993
2 33060  48.4401  54.9004 0005607 244.4660 115.5676 14.81938168934041
ORBCOMM FM41            
1 33061U 08031B   25298.42851236  .00003265  00000+0  43892-3 0  9996
2 33061  48.4434  62.5576 0004692 230.7333 200.6596 14.81503345933541
ORBCOMM FM29            
1 33062U 08031C   25298.47140203  .00003392  00000+0  45349-3 0  9997
2 33062  48.4381  69.9942 0006379 228.6940 208.2682 14.81630138933467
ORBCOMM FM39            
1 33063U 08031D   25298.41529854  .00003025  00000+0  42217-3 0  9999
2 33063  48.4385  95.9911 0007044 199.8993 160.1648 14.80109049933081
